{
  "type": "FeatureCollection",
  "features": [
    {
      "type": "Feature",
      "properties": {
        "norad_id": 41330,
        "name": "COSMOS 2514 (751)",
        "group": "gnss",
        "lat": -50.39346705339839,
        "lon": 173.4233036438105,
        "alt_km": 19106.407911266124,
        "timestamp": "2025-12-14T05:42:18.701108+00:00",
        "meta_object_name": "COSMOS 2514 (751)",
        "meta_object_id": "2016-008A",
        "meta_epoch": "2025-12-13T10:59:36.135168",
        "meta_mean_motion": 2.13102653,
        "meta_eccentricity": 0.00120642,
        "meta_inclination": 65.1334,
        "meta_ra_of_asc_node": 319.3793,
        "meta_arg_of_pericenter": 220.0894,
        "meta_mean_anomaly": 139.82,
        "meta_ephemeris_type": 0,
        "meta_classification_type": "U",
        "meta_norad_cat_id": 41330,
        "meta_element_set_no": 999,
        "meta_rev_at_epoch": 7666,
        "meta_bstar": 0,
        "meta_mean_motion_dot": -6.2e-07,
        "meta_mean_motion_ddot": 0,
        "tle_line1": "1 41330U 16008A   25347.45805712 -.00000062  00000+0  00000+0 0  9996",
        "tle_line2": "2 41330  65.1334 319.3793 0012064 220.0894 139.8200  2.13102653 76669"
      },
      "geometry": {
        "type": "Point",
        "coordinates": [
          173.4233036438105,
          -50.39346705339839
        ]
      }
    },
    {
      "type": "Feature",
      "properties": {
        "norad_id": 41384,
        "name": "IRNSS-1F",
        "group": "gnss",
        "lat": 4.8024645177571985,
        "lon": -159.119086300575,
        "alt_km": 35769.95271747577,
        "timestamp": "2025-12-14T05:42:18.701122+00:00",
        "meta_object_name": "IRNSS-1F",
        "meta_object_id": "2016-015A",
        "meta_epoch": "2025-12-13T13:36:12.377952",
        "meta_mean_motion": 1.00272968,
        "meta_eccentricity": 0.00225824,
        "meta_inclination": 4.8827,
        "meta_ra_of_asc_node": 101.2797,
        "meta_arg_of_pericenter": 180.7759,
        "meta_mean_anomaly": 36.8575,
        "meta_ephemeris_type": 0,
        "meta_classification_type": "U",
        "meta_norad_cat_id": 41384,
        "meta_element_set_no": 999,
        "meta_rev_at_epoch": 3580,
        "meta_bstar": 0,
        "meta_mean_motion_dot": 1.73e-06,
        "meta_mean_motion_ddot": 0,
        "tle_line1": "1 41384U 16015A   25347.56680993  .00000173  00000+0  00000+0 0  9999",
        "tle_line2": "2 41384   4.8827 101.2797 0022582 180.7759  36.8575  1.00272968 35809"
      },
      "geometry": {
        "type": "Point",
        "coordinates": [
          -159.119086300575,
          4.8024645177571985
        ]
      }
    },
    {
      "type": "Feature",
      "properties": {
        "norad_id": 41434,
        "name": "BEIDOU-2 IGSO-6 (C13)",
        "group": "gnss",
        "lat": -35.2217904029847,
        "lon": -116.01554621545513,
        "alt_km": 35530.23751716625,
        "timestamp": "2025-12-14T05:42:18.701135+00:00",
        "meta_object_name": "BEIDOU-2 IGSO-6 (C13)",
        "meta_object_id": "2016-021A",
        "meta_epoch": "2025-12-11T15:29:12.615360",
        "meta_mean_motion": 1.00293077,
        "meta_eccentricity": 0.00608616,
        "meta_inclination": 59.9644,
        "meta_ra_of_asc_node": 39.9082,
        "meta_arg_of_pericenter": 229.9753,
        "meta_mean_anomaly": 135.9177,
        "meta_ephemeris_type": 0,
        "meta_classification_type": "U",
        "meta_norad_cat_id": 41434,
        "meta_element_set_no": 999,
        "meta_rev_at_epoch": 3560,
        "meta_bstar": 0,
        "meta_mean_motion_dot": -1.62e-06,
        "meta_mean_motion_ddot": 0,
        "tle_line1": "1 41434U 16021A   25345.64528490 -.00000162  00000+0  00000+0 0  9991",
        "tle_line2": "2 41434  59.9644  39.9082 0060861 229.9753 135.9177  1.00293077 35600"
      },
      "geometry": {
        "type": "Point",
        "coordinates": [
          -116.01554621545513,
          -35.2217904029847
        ]
      }
    },
    {
      "type": "Feature",
      "properties": {
        "norad_id": 41469,
        "name": "IRNSS-1G",
        "group": "gnss",
        "lat": -1.3225922131330434,
        "lon": -61.96636306209188,
        "alt_km": 35792.39609832416,
        "timestamp": "2025-12-14T05:42:18.701147+00:00",
        "meta_object_name": "IRNSS-1G",
        "meta_object_id": "2016-027A",
        "meta_epoch": "2025-12-13T15:46:37.386624",
        "meta_mean_motion": 1.00279725,
        "meta_eccentricity": 0.00025893,
        "meta_inclination": 4.736,
        "meta_ra_of_asc_node": 102.074,
        "meta_arg_of_pericenter": 335.0286,
        "meta_mean_anomaly": 11.4932,
        "meta_ephemeris_type": 0,
        "meta_classification_type": "U",
        "meta_norad_cat_id": 41469,
        "meta_element_set_no": 999,
        "meta_rev_at_epoch": 3531,
        "meta_bstar": 0,
        "meta_mean_motion_dot": -3.19e-06,
        "meta_mean_motion_ddot": 0,
        "tle_line1": "1 41469U 16027A   25347.65737716 -.00000319  00000+0  00000+0 0  9995",
        "tle_line2": "2 41469   4.7360 102.0740 0002589 335.0286  11.4932  1.00279725 35316"
      },
      "geometry": {
        "type": "Point",
        "coordinates": [
          -61.96636306209188,
          -1.3225922131330434
        ]
      }
    },
    {
      "type": "Feature",
      "properties": {
        "norad_id": 41549,
        "name": "GSAT0211 (GALILEO 14)",
        "group": "gnss",
        "lat": 37.48652164484176,
        "lon": 14.525310846430338,
        "alt_km": 23222.62157932572,
        "timestamp": "2025-12-14T05:42:18.701158+00:00",
        "meta_object_name": "GSAT0211 (GALILEO 14)",
        "meta_object_id": "2016-030A",
        "meta_epoch": "2025-12-11T02:09:03.353760",
        "meta_mean_motion": 1.70473055,
        "meta_eccentricity": 0.00041282,
        "meta_inclination": 55.1527,
        "meta_ra_of_asc_node": 226.8689,
        "meta_arg_of_pericenter": 18.4657,
        "meta_mean_anomaly": 341.6286,
        "meta_ephemeris_type": 0,
        "meta_classification_type": "U",
        "meta_norad_cat_id": 41549,
        "meta_element_set_no": 999,
        "meta_rev_at_epoch": 5946,
        "meta_bstar": 0,
        "meta_mean_motion_dot": 9e-08,
        "meta_mean_motion_ddot": 0,
        "tle_line1": "1 41549U 16030A   25345.08962215  .00000009  00000+0  00000+0 0  9992",
        "tle_line2": "2 41549  55.1527 226.8689 0004128  18.4657 341.6286  1.70473055 59463"
      },
      "geometry": {
        "type": "Point",
        "coordinates": [
          14.525310846430338,
          37.48652164484176
        ]
      }
    },
    {
      "type": "Feature",
      "properties": {
        "norad_id": 41550,
        "name": "GSAT0210 (GALILEO 13)",
        "group": "gnss",
        "lat": -21.016921342756593,
        "lon": -148.72356209002083,
        "alt_km": 23225.19355577294,
        "timestamp": "2025-12-14T05:42:18.701170+00:00",
        "meta_object_name": "GSAT0210 (GALILEO 13)",
        "meta_object_id": "2016-030B",
        "meta_epoch": "2025-12-11T08:19:41.751264",
        "meta_mean_motion": 1.70473653,
        "meta_eccentricity": 0.00011945,
        "meta_inclination": 55.152,
        "meta_ra_of_asc_node": 226.8599,
        "meta_arg_of_pericenter": 242.2312,
        "meta_mean_anomaly": 117.8354,
        "meta_ephemeris_type": 0,
        "meta_classification_type": "U",
        "meta_norad_cat_id": 41550,
        "meta_element_set_no": 999,
        "meta_rev_at_epoch": 5946,
        "meta_bstar": 0,
        "meta_mean_motion_dot": 1e-07,
        "meta_mean_motion_ddot": 0,
        "tle_line1": "1 41550U 16030B   25345.34701101  .00000010  00000+0  00000+0 0  9990",
        "tle_line2": "2 41550  55.1520 226.8599 0001194 242.2312 117.8354  1.70473653 59466"
      },
      "geometry": {
        "type": "Point",
        "coordinates": [
          -148.72356209002083,
          -21.016921342756593
        ]
      }
    },
    {
      "type": "Feature",
      "properties": {
        "norad_id": 41586,
        "name": "BEIDOU-2 G7 (C03)",
        "group": "gnss",
        "lat": -0.9328820192037987,
        "lon": -80.91289444406443,
        "alt_km": 35804.00655186471,
        "timestamp": "2025-12-14T05:42:18.701181+00:00",
        "meta_object_name": "BEIDOU-2 G7 (C03)",
        "meta_object_id": "2016-037A",
        "meta_epoch": "2025-12-13T15:41:15.400608",
        "meta_mean_motion": 1.00266893,
        "meta_eccentricity": 0.00045907,
        "meta_inclination": 1.7596,
        "meta_ra_of_asc_node": 67.775,
        "meta_arg_of_pericenter": 358.4711,
        "meta_mean_anomaly": 2.0592,
        "meta_ephemeris_type": 0,
        "meta_classification_type": "U",
        "meta_norad_cat_id": 41586,
        "meta_element_set_no": 999,
        "meta_rev_at_epoch": 502,
        "meta_bstar": 0,
        "meta_mean_motion_dot": -3.38e-06,
        "meta_mean_motion_ddot": 0,
        "tle_line1": "1 41586U 16037A   25347.65365047 -.00000338  00000+0  00000+0 0  9991",
        "tle_line2": "2 41586   1.7596  67.7750 0004590 358.4711   2.0592  1.00266893  5023"
      },
      "geometry": {
        "type": "Point",
        "coordinates": [
          -80.91289444406443,
          -0.9328820192037987
        ]
      }
    }
  ]
}